{
    "links": {
        "self": "http://www.neowsapp.com/rest/v1/neo/3724216?api_key=iIulBulltgU6a56xZRHN4H3l9WmuAYTsLGpBGhQ2"
    },
    "id": "3724216",
    "neo_reference_id": "3724216",
    "name": "(2015 MC131)",
    "designation": "2015 MC131",
    "nasa_jpl_url": "http://ssd.jpl.nasa.gov/sbdb.cgi?sstr=3724216",
    "absolute_magnitude_h": 24.6,
    "estimated_diameter": {
        "kilometers": {
            "estimated_diameter_min": 0.0319561887,
            "estimated_diameter_max": 0.0714562102
        },
        "meters": {
            "estimated_diameter_min": 31.9561886721,
            "estimated_diameter_max": 71.4562101727
        },
        "miles": {
            "estimated_diameter_min": 0.0198566489,
            "estimated_diameter_max": 0.0444008168
        },
        "feet": {
            "estimated_diameter_min": 104.8431420431,
            "estimated_diameter_max": 234.436392583
        }
    },
    "is_potentially_hazardous_asteroid": false,
    "close_approach_data": [
        {
            "close_approach_date": "2015-07-10",
            "close_approach_date_full": "2015-Jul-10 06:32",
            "epoch_date_close_approach": 1436509920000,
            "relative_velocity": {
                "kilometers_per_second": "10.5961303931",
                "kilometers_per_hour": "38146.069415317",
                "miles_per_hour": "23702.4840764229"
            },
            "miss_distance": {
                "astronomical": "0.0473528118",
                "lunar": "18.4202437902",
                "kilometers": "7083879.783790866",
                "miles": "4401718.7872353108"
            },
            "orbiting_body": "Earth"
        },
        {
            "close_approach_date": "2015-11-30",
            "close_approach_date_full": "2015-Nov-30 01:02",
            "epoch_date_close_approach": 1448845320000,
            "relative_velocity": {
                "kilometers_per_second": "5.2686118501",
                "kilometers_per_hour": "18967.0026604017",
                "miles_per_hour": "11785.3578475146"
            },
            "miss_distance": {
                "astronomical": "0.4883669351",
                "lunar": "189.9747377539",
                "kilometers": "73058653.269388237",
                "miles": "45396542.0759701906"
            },
            "orbiting_body": "Earth"
        }
    ],
    "orbital_data": {
        "orbit_id": "4",
        "orbit_determination_date": "2017-08-26 06:16:49",
        "first_observation_date": "2015-06-20",
        "last_observation_date": "2015-06-26",
        "data_arc_in_days": 6,
        "observations_used": 12,
        "orbit_uncertainty": "9",
        "minimum_orbit_intersection": ".00841047",
        "jupiter_tisserand_invariant": "4.375",
        "epoch_osculation": "2457196.5",
        "eccentricity": ".4105730210906455",
        "semi_major_axis": "1.537745166828561",
        "inclination": "1.085632394083558",
        "ascending_node_longitude": "87.25448067038188",
        "orbital_period": "696.5061939673895",
        "perihelion_distance": ".9063884880162201",
        "perihelion_argument": "256.9633969651732",
        "aphelion_distance": "2.169101845640902",
        "perihelion_time": "2457257.478343342771",
        "mean_anomaly": "328.4824000223817",
        "mean_motion": ".5168654681294266",
        "equinox": "J2000",
        "orbit_class": {
            "orbit_class_type": "APO",
            "orbit_class_description": "Near-Earth asteroid orbits which cross the Earth’s orbit similar to that of 1862 Apollo",
            "orbit_class_range": "a (semi-major axis) > 1.0 AU; q (perihelion) < 1.017 AU"
        }
    },
    "is_sentry_object": false
}